{
  "norad_id": 68671,
  "name": "STARLINK-37224",
  "history": [
    {
      "epoch": "2026-04-22T13:02:28.921056Z",
      "apogee_km": 343.29532832148743,
      "perigee_km": 341.20394400031455,
      "latitude_deg": -5.1858983943709344e-05,
      "longitude_deg": -62.62606204735838,
      "height_km": 345.93497333557764,
      "semi_major_axis_km": 6720.386636160901,
      "eccentricity": 0.0001556,
      "inclination_deg": 97.2837,
      "raan_deg": 343.5979,
      "arg_perigee_deg": 119.7028,
      "mean_anomaly_deg": 240.4392,
      "mean_motion_rev_day": 15.75837288
    }
  ]
}